[{"OBJECT_NAME":"DAMPE","OBJECT_ID":"2015-078A","EPOCH":"2026-03-09T23:55:00.527232","MEAN_MOTION":15.30502084,"ECCENTRICITY":0.00138005,"INCLINATION":97.4588,"RA_OF_ASC_NODE":73.9866,"ARG_OF_PERICENTER":70.6942,"MEAN_ANOMALY":289.579,"EPHEMERIS_TYPE":0,"CLASSIFICATION_TYPE":"U","NORAD_CAT_ID":41173,"ELEMENT_SET_NO":999,"REV_AT_EPOCH":56937,"BSTAR":9.1158173e-5,"MEAN_MOTION_DOT":2.617e-5,"MEAN_MOTION_DDOT":0},{"OBJECT_NAME":"STARLINK-32550","OBJECT_ID":"2024-222T","EPOCH":"2026-03-09T13:01:26.213664","MEAN_MOTION":15.27589967,"ECCENTRICITY":0.00016256,"INCLINATION":42.9979,"RA_OF_ASC_NODE":137.2508,"ARG_OF_PERICENTER":252.2152,"MEAN_ANOMALY":107.8523,"EPHEMERIS_TYPE":0,"CLASSIFICATION_TYPE":"U","NORAD_CAT_ID":62131,"ELEMENT_SET_NO":999,"REV_AT_EPOCH":7277,"BSTAR":0.00085031734,"MEAN_MOTION_DOT":0.00023218,"MEAN_MOTION_DDOT":0}]
